KUIPER-00595            
1 69280U 26118P   26165.19433067  .00022857  00000+0  60081-3 0  9997
2 69280  51.8719  67.6243 0001872 129.7659 230.3493 15.38491917  3558
KUIPER-00596            
1 69281U 26118Q   26165.09187012 -.00066811  00000+0 -19400-2 0  9991
2 69281  51.8554  68.4244 0012276 171.3822 188.7376 15.34981036  3504
KUIPER-00597            
1 69282U 26118R   26165.20793483  .00025452  00000+0  70100-3 0  9999
2 69282  51.8653  67.7153 0007147 160.3989 199.7273 15.36964160  3520
KUIPER-00599            
1 69283U 26118S   26165.20572108  .00023941  00000+0  65262-3 0  9993
2 69283  51.8697  67.7014 0006429 153.8044 206.3269 15.37324569  3520
KUIPER-00600            
1 69284U 26118T   26165.21158161  .00022112  00000+0  61621-3 0  9998
2 69284  51.8643  67.7366 0009122 162.7243 197.4056 15.36668142  3526
KUIPER-00601            
1 69285U 26118U   26165.20279554  .00027315  00000+0  73638-3 0  9999
2 69285  51.8704  67.6804 0004937 145.9719 214.1585 15.37599881  3529
KUIPER-00602            
1 69286U 26118V   26165.13295825  .00026681  00000+0  70782-3 0  9993
2 69286  51.8712  67.9648 0002947 136.0620 224.0602 15.38115527  3510
KUIPER-00603            
1 69287U 26118W   26165.20392747  .00024131  00000+0  65393-3 0  9993
2 69287  51.8680  67.6902 0005557 149.7195 210.4113 15.37507234  3529
KUIPER-00605            
1 69288U 26118X   26165.20862138 -.00000285  00000+0  29715-5 0  9995
2 69288  51.8666  67.7186 0007755 155.7667 204.3685 15.36989262  3522
KUIPER-00606            
1 69289U 26118Y   26165.20165181  .00024143  00000+0  65045-3 0  9992
2 69289  51.8703  67.6741 0004715 140.4669 219.6663 15.37691677  3523
KUIPER-00607            
1 69290U 26118Z   26165.20484529  .00024722  00000+0  67233-3 0  9998
2 69290  51.8687  67.6959 0006424 152.0192 208.1141 15.37378330  3528
KUIPER-00608            
1 69291U 26118AA  26165.15200721 -.00001975  00000+0 -45492-4 0  9994
2 69291  51.8605  68.0843 0009102 165.6252 194.4994 15.35341731  3514
KUIPER-00610            
1 69292U 26118AB  26165.19619977  .00024497  00000+0  64661-3 0  9996
2 69292  51.8732  67.6339 0002822 127.7684 232.3559 15.38321232  3528
KUIPER-00613            
1 69293U 26118AC  26165.09112086  .00005648  00000+0  17390-3 0  9999
2 69293  51.8630  68.4263 0010299 173.9001 186.2112 15.35136294  3503
KUIPER-00618            
1 69294U 26118AD  26165.19280455  .00029946  00000+0  78108-3 0  9998
2 69294  51.8726  67.6104 0001796  88.3902 271.7291 15.38578231  3520
KUIPER-00620            
1 69295U 26118AE  26165.13054910  .00012700  00000+0  34143-3 0  9999
2 69295  51.8728  67.9464 0002876 110.0951 250.0346 15.38254861  3512
STARLINK-37501          
1 69296U 26119A   26165.04621287 -.00180311  00000+0 -10075-2 0  9991
2 69296  97.2826 190.7006 0002208  13.3464 346.7862 15.79755703  3541
STARLINK-37496          
1 69297U 26119B   26165.11000016  .00101403  00000+0  54409-3 0  9994
2 69297  97.2828 190.7669 0000939  86.7741 273.3634 15.79988237  3553
STARLINK-37519          
1 69298U 26119C   26165.16668980 -.02568270  00000+0 -18528-1 0  9993
2 69298  97.2834 190.8395 0001125  74.4108 277.6248 15.77183691  3408
STARLINK-37455          
1 69299U 26119D   26163.58826481 -.00255334  00000+0 -14432-2 0  9993
2 69299  97.2829 189.1634 0004054  36.6104 323.5440 15.79682093  3317
STARLINK-37456          
1 69300U 26119E   26165.16668980 -.00987498  00000+0 -69652-2 0  9997
2 69300  97.2836 190.8424 0001726  91.5179 264.7013 15.76650721  3401
STARLINK-37630          
1 69301U 26119F   26165.16668980 -.02495567  00000+0 -34800-1 0  9997
2 69301  97.2844 190.7829 0001958  93.9730 122.3401 15.60523633  3566
STARLINK-37804          
1 69302U 26119G   26165.16668980 -.02591598  00000+0 -35998-1 0  9998
2 69302  97.2841 190.7824 0001627  88.6097 133.6414 15.60781003  3565
STARLINK-37730          
1 69303U 26119H   26165.16430461  .00135573  00000+0  69566-3 0  9993
2 69303  97.2821 190.8462 0000972  87.0085 273.1294 15.80876449  3562
STARLINK-37731          
1 69304U 26119J   26165.16668980 -.02598422  00000+0 -37690-1 0  9994
2 69304  97.2843 190.7830 0001793  90.6000 133.4428 15.59666246  3569
STARLINK-37734          
1 69305U 26119K   26165.16668980 -.01771314  00000+0 -12892-1 0  9994
2 69305  97.2831 190.8474 0002454  96.6553 274.9738 15.76212850  3568
STARLINK-37701          
1 69306U 26119L   26165.16298527  .00174862  00000+0  89239-3 0  9994
2 69306  97.2821 190.8473 0001007  82.8802 277.2581 15.80891474  3566
STARLINK-37732          
1 69307U 26119M   26165.16256713  .00178697  00000+0  91155-3 0  9996
2 69307  97.2819 190.8490 0000834  50.3775 309.7567 15.80891264  3561
STARLINK-37689          
1 69308U 26119N   26165.16668980 -.02481731  00000+0 -35324-1 0  9994
2 69308  97.2845 190.7906 0002022  81.3884 158.5015 15.59968483  3560
STARLINK-37619          
1 69309U 26119P   26165.16085623  .00209129  00000+0  10620-2 0  9990
2 69309  97.2821 190.8511 0000555  75.3116 284.8214 15.80910536  3562
