OBJECT_NAME,OBJECT_ID,EPOCH,MEAN_MOTION,ECCENTRICITY,INCLINATION,RA_OF_ASC_NODE,ARG_OF_PERICENTER,MEAN_ANOMALY,EPHEMERIS_TYPE,CLASSIFICATION_TYPE,NORAD_CAT_ID,ELEMENT_SET_NO,REV_AT_EPOCH,BSTAR,MEAN_MOTION_DOT,MEAN_MOTION_DDOT
KUIPER-00595,2026-118P,2026-06-14T04:39:50.169888,15.38491917,.0001872,51.8719,67.6243,129.7659,230.3493,0,U,69280,999,355,.60081E-3,.22857E-3,0
KUIPER-00596,2026-118Q,2026-06-14T02:12:17.578368,15.34981036,.0012276,51.8554,68.4244,171.3822,188.7376,0,U,69281,999,350,-.194E-2,-.66811E-3,0
KUIPER-00597,2026-118R,2026-06-14T04:59:25.569312,15.36964160,.0007147,51.8653,67.7153,160.3989,199.7273,0,U,69282,999,352,.701E-3,.25452E-3,0
KUIPER-00599,2026-118S,2026-06-14T04:56:14.301312,15.37324569,.0006429,51.8697,67.7014,153.8044,206.3269,0,U,69283,999,352,.65262E-3,.23941E-3,0
KUIPER-00600,2026-118T,2026-06-14T05:04:40.651104,15.36668142,.0009122,51.8643,67.7366,162.7243,197.4056,0,U,69284,999,352,.61621E-3,.22112E-3,0
KUIPER-00601,2026-118U,2026-06-14T04:52:01.534656,15.37599881,.0004937,51.8704,67.6804,145.9719,214.1585,0,U,69285,999,352,.73638E-3,.27315E-3,0
KUIPER-00602,2026-118V,2026-06-14T03:11:27.592800,15.38115527,.0002947,51.8712,67.9648,136.0620,224.0602,0,U,69286,999,351,.70782E-3,.26681E-3,0
KUIPER-00603,2026-118W,2026-06-14T04:53:39.333408,15.37507234,.0005557,51.8680,67.6902,149.7195,210.4113,0,U,69287,999,352,.65393E-3,.24131E-3,0
KUIPER-00605,2026-118X,2026-06-14T05:00:24.887232,15.36989262,.0007755,51.8666,67.7186,155.7667,204.3685,0,U,69288,999,352,.29715E-5,-.285E-5,0
KUIPER-00606,2026-118Y,2026-06-14T04:50:22.716384,15.37691677,.0004715,51.8703,67.6741,140.4669,219.6663,0,U,69289,999,352,.65045E-3,.24143E-3,0
KUIPER-00607,2026-118Z,2026-06-14T04:54:58.633056,15.37378330,.0006424,51.8687,67.6959,152.0192,208.1141,0,U,69290,999,352,.67233E-3,.24722E-3,0
KUIPER-00608,2026-118AA,2026-06-14T03:38:53.422944,15.35341731,.0009102,51.8605,68.0843,165.6252,194.4994,0,U,69291,999,351,-.45492E-4,-.1975E-4,0
KUIPER-00610,2026-118AB,2026-06-14T04:42:31.660128,15.38321232,.0002822,51.8732,67.6339,127.7684,232.3559,0,U,69292,999,352,.64661E-3,.24497E-3,0
KUIPER-00613,2026-118AC,2026-06-14T02:11:12.842304,15.35136294,.0010299,51.8630,68.4263,173.9001,186.2112,0,U,69293,999,350,.1739E-3,.5648E-4,0
KUIPER-00618,2026-118AD,2026-06-14T04:37:38.313120,15.38578231,.0001796,51.8726,67.6104,88.3902,271.7291,0,U,69294,999,352,.78108E-3,.29946E-3,0
KUIPER-00620,2026-118AE,2026-06-14T03:07:59.442240,15.38254861,.0002876,51.8728,67.9464,110.0951,250.0346,0,U,69295,999,351,.34143E-3,.127E-3,0
STARLINK-37501,2026-119A,2026-06-14T01:06:32.791968,15.79755703,.0002208,97.2826,190.7006,13.3464,346.7862,0,U,69296,999,354,-.10075E-2,-.180311E-2,0
STARLINK-37496,2026-119B,2026-06-14T02:38:24.013824,15.79988237,.0000939,97.2828,190.7669,86.7741,273.3634,0,U,69297,999,355,.54409E-3,.101403E-2,0
STARLINK-37519,2026-119C,2026-06-14T04:00:01.998720,15.77183691,.0001125,97.2834,190.8395,74.4108,277.6248,0,U,69298,999,340,-.18528E-1,-.256827E-1,0
STARLINK-37455,2026-119D,2026-06-12T14:07:06.079584,15.79682093,.00040545,97.2829,189.1634,36.6104,323.5440,0,U,69299,999,331,-.14431533E-2,-.255334E-2,0
STARLINK-37456,2026-119E,2026-06-14T04:00:01.998720,15.76650721,.0001726,97.2836,190.8424,91.5179,264.7013,0,U,69300,999,340,-.69652E-2,-.987498E-2,0
STARLINK-37630,2026-119F,2026-06-14T04:00:01.998720,15.60523633,.0001958,97.2844,190.7829,93.9730,122.3401,0,U,69301,999,356,-.348E-1,-.2495567E-1,0
STARLINK-37804,2026-119G,2026-06-14T04:00:01.998720,15.60781003,.0001627,97.2841,190.7824,88.6097,133.6414,0,U,69302,999,356,-.35998E-1,-.2591598E-1,0
STARLINK-37730,2026-119H,2026-06-14T03:56:35.918304,15.80876449,.0000972,97.2821,190.8462,87.0085,273.1294,0,U,69303,999,356,.69566E-3,.135573E-2,0
STARLINK-37731,2026-119J,2026-06-14T04:00:01.998720,15.59666246,.0001793,97.2843,190.7830,90.6000,133.4428,0,U,69304,999,356,-.3769E-1,-.2598422E-1,0
STARLINK-37734,2026-119K,2026-06-14T04:00:01.998720,15.76212850,.0002454,97.2831,190.8474,96.6553,274.9738,0,U,69305,999,356,-.12892E-1,-.1771314E-1,0
STARLINK-37701,2026-119L,2026-06-14T03:54:41.927328,15.80891474,.0001007,97.2821,190.8473,82.8802,277.2581,0,U,69306,999,356,.89239E-3,.174862E-2,0
STARLINK-37732,2026-119M,2026-06-14T03:54:05.800032,15.80891264,.0000834,97.2819,190.8490,50.3775,309.7567,0,U,69307,999,356,.91155E-3,.178697E-2,0
STARLINK-37689,2026-119N,2026-06-14T04:00:01.998720,15.59968483,.0002022,97.2845,190.7906,81.3884,158.5015,0,U,69308,999,356,-.35324E-1,-.2481731E-1,0
STARLINK-37619,2026-119P,2026-06-14T03:51:37.978272,15.80910536,.0000555,97.2821,190.8511,75.3116,284.8214,0,U,69309,999,356,.1062E-2,.209129E-2,0
